ISS (ZARYA)             
1 25544U 98067A   24020.87835618  .00021348  00000+0  38550-3 0  9995
2 25544  51.6420 330.2296 0004951 110.9950 344.4936 15.49659864435551
TIANZHOU-7              
1 58811U 24013A   24020.13461773  .00040561  00000+0  44348-3 0  9994
2 58811  41.4689 273.7443 0007350 202.7408 157.3107 15.62513321155762
CZ-7 R/B                
1 58812U 24013B   24020.82663262  .00976457  75536-5  54895-3 0  9990
2 58812  41.4712 268.1797 0082598 198.5920 251.3599 16.10461908   528
CZ-7 DEB                
1 58813U 24013C   24018.11402078 -.00002294  72670-5  00000+0 0  9997
2 58813  41.8298 285.9373 0234014 181.6233 328.2070 15.73710950    93
CZ-7 DEB                
1 58814U 24013D   24018.11444661 -.00002240  70950-5  00000+0 0  9992
2 58814  41.6413 286.0086 0240306 187.1577 323.2676 15.72861586    84
2024-014A               
1 58815U 24015A   24020.37270606  .00005329  00000+0  10000-3 0  9990
2 58815  51.6453 332.7333 0004066 135.9816  16.7055 15.50369419   227
ISS DEB                 
1 47853U 98067RZ  24020.79321918  .00147431  19700-4  36827-3 0  9995
2 47853  51.6237 254.5418 0001848 168.4912 191.6139 15.95475683163175
CSS (TIANHE)            
1 48274U 21035A   24020.77376814  .00029096  00000+0  31918-3 0  9997
2 48274  41.4686 269.8439 0007576 206.9967 153.0479 15.62549168155862
ISS (NAUKA)             
1 49044U 21066A   24020.42761635  .00023521  00000+0  42405-3 0  9998
2 49044  51.6417 332.4645 0005091 108.4197 350.8424 15.49642494435487
FREGAT DEB              
1 49271U 11037PF  24020.24381015  .00001757  00000+0  44110-2 0  9998
2 49271  51.6340  52.0434 0981936 170.8842 191.1362 12.11381672117125
CSS (WENTIAN)           
1 53239U 22085A   24020.13461773  .00040561  00000+0  44348-3 0  9990
2 53239  41.4689 273.7443 0007350 202.7408 157.3107 15.62513321155761
CSS (MENGTIAN)          
1 54216U 22143A   24020.13461773  .00040561  00000+0  44348-3 0  9991
2 54216  41.4689 273.7443 0007350 202.7408 157.3107 15.62513321155767
TIANZHOU-6              
1 56446U 23063A   24019.19390499  .00021674  00000+0  22319-3 0  9998
2 56446  41.4697 279.3888 0010873 162.8101 335.0246 15.64253285 39669
ISS DEB                 
1 57212U 98067VP  24020.05723798  .00072220  00000+0  62638-3 0  9996
2 57212  51.6343 321.9306 0004922 126.2764 233.8688 15.68442751 32523
1998-067VR              
1 57313U 98067VR  24020.75129153  .00933532  46350-3  13489-2 0  9993
2 57313  51.6235 306.9055 0006350 161.7182 198.4059 16.04733075 31096
MOONLIGHTER             
1 57316U 98067VU  24020.81094438  .00568314  00000+0  19858-2 0  9996
2 57316  51.6274 310.3919 0007782 167.2831 192.8371 15.87275044 31049
PROGRESS-MS 24          
1 57691U 23125A   24020.42761635  .00023521  00000+0  42405-3 0  9993
2 57691  51.6417 332.4645 0005091 108.4197 350.8424 15.49642494435484
CREW DRAGON 7           
1 57697U 23128A   24020.34537350  .00022744  00000+0  41045-3 0  9993
2 57697  51.6399 332.8743 0004757 110.2915 249.8585 15.49637024435465
SOYUZ-MS 24             
1 57862U 23143A   24020.34537350  .00022744  00000+0  41045-3 0  9994
2 57862  51.6399 332.8743 0004757 110.2915 249.8585 15.49637024435469
SHENZHOU-17 (SZ-17)     
1 58146U 23164A   24020.13461773  .00040561  00000+0  44348-3 0  9991
2 58146  41.4689 273.7443 0007350 202.7408 157.3107 15.62513321155763
ISS DEB                 
1 58174U 98067WA  24020.23468329  .00136521  00000+0  13509-2 0  9997
2 58174  51.6364 329.1345 0006447 103.9849 256.1863 15.64878296 13498
ISS DEB                 
1 58229U 98067WC  24020.08998189  .00063048  00000+0  83644-3 0  9994
2 58229  51.6394 331.9235 0004238  94.4147 265.7329 15.57632516 12231
PROGRESS-MS 25          
1 58460U 23184A   24020.34537350  .00022744  00000+0  41045-3 0  9994
2 58460  51.6399 332.8743 0004757 110.2915 249.8585 15.49637024435464
BEAK                    
1 58612U 98067WD  24020.41124633  .00062437  00000+0  92296-3 0  9996
2 58612  51.6401 331.8192 0006250 108.9925 251.1744 15.54700230  5214
CLARK SAT-1 (AMBITIOUS) 
1 58613U 98067WE  24020.83971999  .00121028  00000+0  16111-2 0  9991
2 58613  51.6394 329.4312 0008412 129.5952 230.5784 15.57218326  5256
